{
 "type": "FeatureCollection",
 "metadata": {
  "accuracy": "generalised, illustrative only",
  "source": "shape hand-fitted to typical modern extents"
 },
 "features": [
  {
   "type": "Feature",
   "properties": {
    "name": "Sea ice — winter maximum",
    "kind": "ice-max",
    "rank": 1,
    "note": "Roughly the March extent. Generalised for display; use NSIDC data for anything quantitative."
   },
   "geometry": {
    "type": "Polygon",
    "coordinates": [
     [
      [
       -180,
       58
      ],
      [
       -175,
       57.75
      ],
      [
       -170,
       57.5
      ],
      [
       -165,
       57.25
      ],
      [
       -160,
       57
      ],
      [
       -155,
       60.25
      ],
      [
       -150,
       63.5
      ],
      [
       -145,
       66.75
      ],
      [
       -140,
       70
      ],
      [
       -135,
       70.25
      ],
      [
       -130,
       70.5
      ],
      [
       -125,
       70.75
      ],
      [
       -120,
       71
      ],
      [
       -115,
       70.25
      ],
      [
       -110,
       69.5
      ],
      [
       -105,
       68.75
      ],
      [
       -100,
       68
      ],
      [
       -95,
       66.5
      ],
      [
       -90,
       65
      ],
      [
       -85,
       63.5
      ],
      [
       -80,
       62
      ],
      [
       -75,
       59.5
      ],
      [
       -70,
       57
      ],
      [
       -65,
       54.5
      ],
      [
       -60,
       52
      ],
      [
       -55,
       54
      ],
      [
       -50,
       56
      ],
      [
       -45,
       58
      ],
      [
       -40,
       60
      ],
      [
       -35,
       62.5
      ],
      [
       -30,
       65
      ],
      [
       -25,
       67.5
      ],
      [
       -20,
       70
      ],
      [
       -15,
       71.5
      ],
      [
       -10,
       73
      ],
      [
       -5,
       74.5
      ],
      [
       0,
       76
      ],
      [
       5,
       75.5
      ],
      [
       10,
       75
      ],
      [
       15,
       74.5
      ],
      [
       20,
       74
      ],
      [
       25,
       72.75
      ],
      [
       30,
       71.5
      ],
      [
       35,
       70.25
      ],
      [
       40,
       69
      ],
      [
       45,
       69.25
      ],
      [
       50,
       69.5
      ],
      [
       55,
       69.75
      ],
      [
       60,
       70
      ],
      [
       65,
       70.75
      ],
      [
       70,
       71.5
      ],
      [
       75,
       72.25
      ],
      [
       80,
       73
      ],
      [
       85,
       73.25
      ],
      [
       90,
       73.5
      ],
      [
       95,
       73.75
      ],
      [
       100,
       74
      ],
      [
       105,
       73.75
      ],
      [
       110,
       73.5
      ],
      [
       115,
       73.25
      ],
      [
       120,
       73
      ],
      [
       125,
       72.25
      ],
      [
       130,
       71.5
      ],
      [
       135,
       70.75
      ],
      [
       140,
       70
      ],
      [
       145,
       68
      ],
      [
       150,
       66
      ],
      [
       155,
       64
      ],
      [
       160,
       62
      ],
      [
       165,
       61
      ],
      [
       170,
       60
      ],
      [
       175,
       59
      ],
      [
       180,
       58
      ],
      [
       180,
       89.7
      ],
      [
       160,
       89.7
      ],
      [
       140,
       89.7
      ],
      [
       120,
       89.7
      ],
      [
       100,
       89.7
      ],
      [
       80,
       89.7
      ],
      [
       60,
       89.7
      ],
      [
       40,
       89.7
      ],
      [
       20,
       89.7
      ],
      [
       0,
       89.7
      ],
      [
       -20,
       89.7
      ],
      [
       -40,
       89.7
      ],
      [
       -60,
       89.7
      ],
      [
       -80,
       89.7
      ],
      [
       -100,
       89.7
      ],
      [
       -120,
       89.7
      ],
      [
       -140,
       89.7
      ],
      [
       -160,
       89.7
      ],
      [
       -180,
       89.7
      ],
      [
       -180,
       58
      ]
     ]
    ]
   }
  },
  {
   "type": "Feature",
   "properties": {
    "name": "Sea ice — summer minimum",
    "kind": "ice-min",
    "rank": 1,
    "note": "Roughly the September extent. The retreat of this edge is what opens the Northern Sea Route and what the competing shelf claims are ultimately about."
   },
   "geometry": {
    "type": "Polygon",
    "coordinates": [
     [
      [
       -180,
       72
      ],
      [
       -175,
       71.75
      ],
      [
       -170,
       71.5
      ],
      [
       -165,
       71.25
      ],
      [
       -160,
       71
      ],
      [
       -155,
       71.75
      ],
      [
       -150,
       72.5
      ],
      [
       -145,
       73.25
      ],
      [
       -140,
       74
      ],
      [
       -135,
       74.5
      ],
      [
       -130,
       75
      ],
      [
       -125,
       75.5
      ],
      [
       -120,
       76
      ],
      [
       -115,
       76.75
      ],
      [
       -110,
       77.5
      ],
      [
       -105,
       78.25
      ],
      [
       -100,
       79
      ],
      [
       -95,
       79.25
      ],
      [
       -90,
       79.5
      ],
      [
       -85,
       79.75
      ],
      [
       -80,
       80
      ],
      [
       -75,
       80.25
      ],
      [
       -70,
       80.5
      ],
      [
       -65,
       80.75
      ],
      [
       -60,
       81
      ],
      [
       -55,
       81.25
      ],
      [
       -50,
       81.5
      ],
      [
       -45,
       81.75
      ],
      [
       -40,
       82
      ],
      [
       -35,
       82
      ],
      [
       -30,
       82
      ],
      [
       -25,
       82
      ],
      [
       -20,
       82
      ],
      [
       -15,
       82
      ],
      [
       -10,
       82
      ],
      [
       -5,
       82
      ],
      [
       0,
       82
      ],
      [
       5,
       81.75
      ],
      [
       10,
       81.5
      ],
      [
       15,
       81.25
      ],
      [
       20,
       81
      ],
      [
       25,
       80.75
      ],
      [
       30,
       80.5
      ],
      [
       35,
       80.25
      ],
      [
       40,
       80
      ],
      [
       45,
       80
      ],
      [
       50,
       80
      ],
      [
       55,
       80
      ],
      [
       60,
       80
      ],
      [
       65,
       80
      ],
      [
       70,
       80
      ],
      [
       75,
       80
      ],
      [
       80,
       80
      ],
      [
       85,
       79.75
      ],
      [
       90,
       79.5
      ],
      [
       95,
       79.25
      ],
      [
       100,
       79
      ],
      [
       105,
       78.75
      ],
      [
       110,
       78.5
      ],
      [
       115,
       78.25
      ],
      [
       120,
       78
      ],
      [
       125,
       77.5
      ],
      [
       130,
       77
      ],
      [
       135,
       76.5
      ],
      [
       140,
       76
      ],
      [
       145,
       75.5
      ],
      [
       150,
       75
      ],
      [
       155,
       74.5
      ],
      [
       160,
       74
      ],
      [
       165,
       73.5
      ],
      [
       170,
       73
      ],
      [
       175,
       72.5
      ],
      [
       180,
       72
      ],
      [
       180,
       89.7
      ],
      [
       160,
       89.7
      ],
      [
       140,
       89.7
      ],
      [
       120,
       89.7
      ],
      [
       100,
       89.7
      ],
      [
       80,
       89.7
      ],
      [
       60,
       89.7
      ],
      [
       40,
       89.7
      ],
      [
       20,
       89.7
      ],
      [
       0,
       89.7
      ],
      [
       -20,
       89.7
      ],
      [
       -40,
       89.7
      ],
      [
       -60,
       89.7
      ],
      [
       -80,
       89.7
      ],
      [
       -100,
       89.7
      ],
      [
       -120,
       89.7
      ],
      [
       -140,
       89.7
      ],
      [
       -160,
       89.7
      ],
      [
       -180,
       89.7
      ],
      [
       -180,
       72
      ]
     ]
    ]
   }
  }
 ]
}
