{
  "type": "FeatureCollection",
  "metadata": {
    "accuracy": "well-known, publicly reported installations; coordinates approximate to the site",
    "note": "Included for geopolitical orientation. Nothing here is targeting data — locations are rounded and drawn from open reporting."
  },
  "features": [
    { "type": "Feature", "properties": { "name": "Sevastopol", "kind": "naval", "bloc": "ru", "rank": 1, "note": "Historic headquarters of the Black Sea Fleet. Much of the fleet has been dispersed east to Novorossiysk under Ukrainian missile and naval drone pressure." }, "geometry": { "type": "Point", "coordinates": [33.52, 44.62] } },
    { "type": "Feature", "properties": { "name": "Novorossiysk", "kind": "naval", "bloc": "ru", "rank": 1, "note": "The Black Sea Fleet's fallback base, doubling as Russia's main southern oil export port." }, "geometry": { "type": "Point", "coordinates": [37.77, 44.72] } },
    { "type": "Feature", "properties": { "name": "Severomorsk", "kind": "naval", "bloc": "ru", "rank": 1, "note": "Northern Fleet headquarters on the Kola Peninsula, the hinge of Russia's Arctic and North Atlantic posture." }, "geometry": { "type": "Point", "coordinates": [33.42, 69.07] } },
    { "type": "Feature", "properties": { "name": "Gadzhiyevo", "kind": "naval", "bloc": "ru", "rank": 2, "note": "Ballistic missile submarine base on the Kola Peninsula." }, "geometry": { "type": "Point", "coordinates": [33.33, 69.25] } },
    { "type": "Feature", "properties": { "name": "Baltiysk, Kaliningrad", "kind": "naval", "bloc": "ru", "rank": 1, "note": "Baltic Fleet base in the Kaliningrad exclave, wedged between Poland and Lithuania. The 65 km of Polish–Lithuanian border beside it — the Suwałki gap — is NATO's most-discussed land chokepoint." }, "geometry": { "type": "Point", "coordinates": [19.90, 54.65] } },
    { "type": "Feature", "properties": { "name": "Tartus", "kind": "naval", "bloc": "ru", "rank": 2, "note": "Russia's Mediterranean naval facility in Syria; its long-term status became uncertain after the fall of the Assad government in December 2024." }, "geometry": { "type": "Point", "coordinates": [35.87, 34.90] } },
    { "type": "Feature", "properties": { "name": "Vladivostok", "kind": "naval", "bloc": "ru", "rank": 2, "note": "Pacific Fleet headquarters." }, "geometry": { "type": "Point", "coordinates": [131.89, 43.12] } },
    { "type": "Feature", "properties": { "name": "Faslane", "kind": "naval", "bloc": "nato", "rank": 2, "note": "Home of the UK's ballistic missile submarines, one of two European nuclear deterrent forces." }, "geometry": { "type": "Point", "coordinates": [-4.82, 56.07] } },
    { "type": "Feature", "properties": { "name": "Rota", "kind": "naval", "bloc": "nato", "rank": 3, "note": "Spanish base hosting forward-deployed US destroyers for Mediterranean and Atlantic missile defence." }, "geometry": { "type": "Point", "coordinates": [-6.35, 36.62] } },

    { "type": "Feature", "properties": { "name": "Ramstein", "kind": "base", "bloc": "nato", "rank": 1, "note": "The hub of US air operations in Europe and the venue that gave its name to the Ukraine Defense Contact Group." }, "geometry": { "type": "Point", "coordinates": [7.60, 49.44] } },
    { "type": "Feature", "properties": { "name": "Rzeszów–Jasionka", "kind": "base", "bloc": "nato", "rank": 1, "note": "The Polish airport near the Ukrainian border that became the main logistics gateway for Western aid into Ukraine." }, "geometry": { "type": "Point", "coordinates": [22.02, 50.11] } },
    { "type": "Feature", "properties": { "name": "Incirlik", "kind": "base", "bloc": "nato", "rank": 2, "note": "Turkish air base long associated with forward-deployed US nuclear weapons." }, "geometry": { "type": "Point", "coordinates": [35.42, 37.00] } },
    { "type": "Feature", "properties": { "name": "Ørland", "kind": "base", "bloc": "nato", "rank": 3, "note": "Norway's main fighter base, covering the northern approaches." }, "geometry": { "type": "Point", "coordinates": [9.60, 63.70] } },
    { "type": "Feature", "properties": { "name": "Ämari", "kind": "base", "bloc": "nato", "rank": 3, "note": "Estonian base used for the rotational Baltic Air Policing mission." }, "geometry": { "type": "Point", "coordinates": [24.21, 59.26] } },
    { "type": "Feature", "properties": { "name": "Šiauliai", "kind": "base", "bloc": "nato", "rank": 3, "note": "The original Baltic Air Policing base in Lithuania." }, "geometry": { "type": "Point", "coordinates": [23.39, 55.89] } },
    { "type": "Feature", "properties": { "name": "Mihail Kogălniceanu", "kind": "base", "bloc": "nato", "rank": 2, "note": "Romanian base on the Black Sea, expanding into one of NATO's largest installations in Europe." }, "geometry": { "type": "Point", "coordinates": [28.49, 44.36] } },
    { "type": "Feature", "properties": { "name": "Engels-2", "kind": "base", "bloc": "ru", "rank": 1, "note": "Strategic bomber base on the Volga, struck repeatedly by long-range Ukrainian drones." }, "geometry": { "type": "Point", "coordinates": [46.21, 51.48] } },
    { "type": "Feature", "properties": { "name": "Olenya", "kind": "base", "bloc": "ru", "rank": 2, "note": "Arctic bomber dispersal base on the Kola Peninsula." }, "geometry": { "type": "Point", "coordinates": [33.46, 68.15] } },
    { "type": "Feature", "properties": { "name": "Belaya", "kind": "base", "bloc": "ru", "rank": 3, "note": "Bomber base near Irkutsk, over 4,000 km from Ukraine and still reached by drone attack in 2025." }, "geometry": { "type": "Point", "coordinates": [103.55, 52.91] } },
    { "type": "Feature", "properties": { "name": "Hmeimim", "kind": "base", "bloc": "ru", "rank": 3, "note": "Russian air base in Syria; its future has been in question since December 2024." }, "geometry": { "type": "Point", "coordinates": [35.95, 35.41] } },

    { "type": "Feature", "properties": { "name": "Plesetsk cosmodrome", "kind": "nuclear", "bloc": "ru", "rank": 2, "note": "Northern launch complex used for ICBM testing as well as military space launches." }, "geometry": { "type": "Point", "coordinates": [40.58, 62.93] } },
    { "type": "Feature", "properties": { "name": "Sevmash, Severodvinsk", "kind": "nuclear", "bloc": "ru", "rank": 2, "note": "The yard that builds Russia's nuclear submarines, on the White Sea." }, "geometry": { "type": "Point", "coordinates": [39.83, 64.56] } },
    { "type": "Feature", "properties": { "name": "Novaya Zemlya test site", "kind": "nuclear", "bloc": "ru", "rank": 2, "note": "The Arctic archipelago used for Soviet nuclear testing, maintained in a state of readiness." }, "geometry": { "type": "Point", "coordinates": [54.50, 73.40] } },
    { "type": "Feature", "properties": { "name": "Zaporizhzhia NPP", "kind": "nuclear", "bloc": "ru", "rank": 1, "note": "Europe's largest nuclear plant, under Russian control since March 2022 with all reactors shut down." }, "geometry": { "type": "Point", "coordinates": [34.59, 47.51] } },
    { "type": "Feature", "properties": { "name": "Chornobyl", "kind": "nuclear", "bloc": "other", "rank": 2, "note": "The exclusion zone was occupied in the opening weeks of the 2022 invasion; the New Safe Confinement over reactor 4 was damaged by a drone strike in February 2025." }, "geometry": { "type": "Point", "coordinates": [30.10, 51.39] } },

    { "type": "Feature", "properties": { "name": "Redzikowo Aegis Ashore", "kind": "airdef", "bloc": "nato", "rank": 2, "note": "The Polish half of NATO's ballistic missile defence in Europe, declared operational in 2024." }, "geometry": { "type": "Point", "coordinates": [17.10, 54.48] } },
    { "type": "Feature", "properties": { "name": "Deveselu Aegis Ashore", "kind": "airdef", "bloc": "nato", "rank": 2, "note": "The Romanian site, operational since 2016 and a standing Russian grievance." }, "geometry": { "type": "Point", "coordinates": [24.40, 44.07] } },
    { "type": "Feature", "properties": { "name": "Pituffik Space Base", "kind": "airdef", "bloc": "nato", "rank": 2, "note": "Formerly Thule, in north-west Greenland. The northernmost US installation and a node in missile early warning." }, "geometry": { "type": "Point", "coordinates": [-68.70, 76.53] } },
    { "type": "Feature", "properties": { "name": "Fylingdales", "kind": "airdef", "bloc": "nato", "rank": 3, "note": "UK early-warning radar covering the northern approaches." }, "geometry": { "type": "Point", "coordinates": [-0.67, 54.36] } },
    { "type": "Feature", "properties": { "name": "Armavir radar", "kind": "airdef", "bloc": "ru", "rank": 3, "note": "Voronezh-DM early-warning radar covering Russia's southern approaches." }, "geometry": { "type": "Point", "coordinates": [41.05, 44.93] } }
  ]
}
