{
 "type": "FeatureCollection",
 "metadata": {
  "note": "Country name anchors keyed by the world-atlas feature id, so a label and a painted country are always the same country."
 },
 "features": [
  {
   "type": "Feature",
   "properties": {
    "name": "Afghanistan",
    "iso": "004",
    "iso3": "AFG",
    "continent": "Asia",
    "pop": 38041754,
    "z": 2.6
   },
   "geometry": {
    "type": "Point",
    "coordinates": [
     66.4966,
     34.1643
    ]
   }
  },
  {
   "type": "Feature",
   "properties": {
    "name": "Åland",
    "iso": "248",
    "iso3": "ALD",
    "continent": "Europe",
    "pop": 29884,
    "z": 4.6
   },
   "geometry": {
    "type": "Point",
    "coordinates": [
     19.8697,
     60.1565
    ]
   }
  },
  {
   "type": "Feature",
   "properties": {
    "name": "Albania",
    "iso": "008",
    "iso3": "ALB",
    "continent": "Europe",
    "pop": 2854191,
    "z": 4.6
   },
   "geometry": {
    "type": "Point",
    "coordinates": [
     20.1138,
     40.6549
    ]
   }
  },
  {
   "type": "Feature",
   "properties": {
    "name": "Algeria",
    "iso": "012",
    "iso3": "DZA",
    "continent": "Africa",
    "pop": 43053054,
    "z": 2.1
   },
   "geometry": {
    "type": "Point",
    "coordinates": [
     2.8082,
     27.3974
    ]
   }
  },
  {
   "type": "Feature",
   "properties": {
    "name": "American Samoa",
    "iso": "016",
    "iso3": "ASM",
    "continent": "Oceania",
    "pop": 55312,
    "z": 3.6
   },
   "geometry": {
    "type": "Point",
    "coordinates": [
     -170.7472,
     -14.3267
    ]
   }
  },
  {
   "type": "Feature",
   "properties": {
    "name": "Andorra",
    "iso": "020",
    "iso3": "AND",
    "continent": "Europe",
    "pop": 77142,
    "z": 4.6
   },
   "geometry": {
    "type": "Point",
    "coordinates": [
     1.5394,
     42.5476
    ]
   }
  },
  {
   "type": "Feature",
   "properties": {
    "name": "Angola",
    "iso": "024",
    "iso3": "AGO",
    "continent": "Africa",
    "pop": 31825295,
    "z": 2.6
   },
   "geometry": {
    "type": "Point",
    "coordinates": [
     17.9842,
     -12.1828
    ]
   }
  },
  {
   "type": "Feature",
   "properties": {
    "name": "Anguilla",
    "iso": "660",
    "iso3": "AIA",
    "continent": "North America",
    "pop": 14731,
    "z": 4.6
   },
   "geometry": {
    "type": "Point",
    "coordinates": [
     -63.0264,
     18.243
    ]
   }
  },
  {
   "type": "Feature",
   "properties": {
    "name": "Antarctica",
    "iso": "010",
    "iso3": "ATA",
    "continent": "Antarctica",
    "pop": 4490,
    "z": 3.6
   },
   "geometry": {
    "type": "Point",
    "coordinates": [
     35.8855,
     -79.8432
    ]
   }
  },
  {
   "type": "Feature",
   "properties": {
    "name": "Antigua and Barb.",
    "iso": "028",
    "iso3": "ATG",
    "continent": "North America",
    "pop": 97118,
    "z": 4.6
   },
   "geometry": {
    "type": "Point",
    "coordinates": [
     -61.7906,
     17.3522
    ]
   }
  },
  {
   "type": "Feature",
   "properties": {
    "name": "Argentina",
    "iso": "032",
    "iso3": "ARG",
    "continent": "South America",
    "pop": 44938712,
    "z": 1.6
   },
   "geometry": {
    "type": "Point",
    "coordinates": [
     -64.1733,
     -33.5012
    ]
   }
  },
  {
   "type": "Feature",
   "properties": {
    "name": "Armenia",
    "iso": "051",
    "iso3": "ARM",
    "continent": "Asia",
    "pop": 2957731,
    "z": 4.6
   },
   "geometry": {
    "type": "Point",
    "coordinates": [
     44.8006,
     40.4591
    ]
   }
  },
  {
   "type": "Feature",
   "properties": {
    "name": "Aruba",
    "iso": "533",
    "iso3": "ABW",
    "continent": "North America",
    "pop": 106314,
    "z": 4.6
   },
   "geometry": {
    "type": "Point",
    "coordinates": [
     -69.9728,
     12.5174
    ]
   }
  },
  {
   "type": "Feature",
   "properties": {
    "name": "Ashmore and Cartier Is.",
    "iso": "036",
    "iso3": "ATC",
    "continent": "Oceania",
    "pop": 0,
    "z": 4.1
   },
   "geometry": {
    "type": "Point",
    "coordinates": [
     123.5864,
     -12.4326
    ]
   }
  },
  {
   "type": "Feature",
   "properties": {
    "name": "Australia",
    "iso": "036",
    "iso3": "AUS",
    "continent": "Oceania",
    "pop": 25364307,
    "z": 1.4
   },
   "geometry": {
    "type": "Point",
    "coordinates": [
     134.0497,
     -24.1295
    ]
   }
  },
  {
   "type": "Feature",
   "properties": {
    "name": "Austria",
    "iso": "040",
    "iso3": "AUT",
    "continent": "Europe",
    "pop": 8877067,
    "z": 2.6
   },
   "geometry": {
    "type": "Point",
    "coordinates": [
     14.1305,
     47.5189
    ]
   }
  },
  {
   "type": "Feature",
   "properties": {
    "name": "Azerbaijan",
    "iso": "031",
    "iso3": "AZE",
    "continent": "Asia",
    "pop": 10023318,
    "z": 3.6
   },
   "geometry": {
    "type": "Point",
    "coordinates": [
     47.211,
     40.4024
    ]
   }
  },
  {
   "type": "Feature",
   "properties": {
    "name": "Bahamas",
    "iso": "044",
    "iso3": "BHS",
    "continent": "North America",
    "pop": 389482,
    "z": 3.6
   },
   "geometry": {
    "type": "Point",
    "coordinates": [
     -77.1467,
     26.4018
    ]
   }
  },
  {
   "type": "Feature",
   "properties": {
    "name": "Bahrain",
    "iso": "048",
    "iso3": "BHR",
    "continent": "Asia",
    "pop": 1641172,
    "z": 3.6
   },
   "geometry": {
    "type": "Point",
    "coordinates": [
     50.5548,
     26.056
    ]
   }
  },
  {
   "type": "Feature",
   "properties": {
    "name": "Bangladesh",
    "iso": "050",
    "iso3": "BGD",
    "continent": "Asia",
    "pop": 163046161,
    "z": 2.6
   },
   "geometry": {
    "type": "Point",
    "coordinates": [
     89.685,
     24.215
    ]
   }
  },
  {
   "type": "Feature",
   "properties": {
    "name": "Barbados",
    "iso": "052",
    "iso3": "BRB",
    "continent": "North America",
    "pop": 287025,
    "z": 4.1
   },
   "geometry": {
    "type": "Point",
    "coordinates": [
     -59.569,
     13.1637
    ]
   }
  },
  {
   "type": "Feature",
   "properties": {
    "name": "Belarus",
    "iso": "112",
    "iso3": "BLR",
    "continent": "Europe",
    "pop": 9466856,
    "z": 2.6
   },
   "geometry": {
    "type": "Point",
    "coordinates": [
     28.4177,
     53.8219
    ]
   }
  },
  {
   "type": "Feature",
   "properties": {
    "name": "Belgium",
    "iso": "056",
    "iso3": "BEL",
    "continent": "Europe",
    "pop": 11484055,
    "z": 3.6
   },
   "geometry": {
    "type": "Point",
    "coordinates": [
     4.8004,
     50.7854
    ]
   }
  },
  {
   "type": "Feature",
   "properties": {
    "name": "Belize",
    "iso": "084",
    "iso3": "BLZ",
    "continent": "North America",
    "pop": 390353,
    "z": 4.6
   },
   "geometry": {
    "type": "Point",
    "coordinates": [
     -88.713,
     17.2021
    ]
   }
  },
  {
   "type": "Feature",
   "properties": {
    "name": "Benin",
    "iso": "204",
    "iso3": "BEN",
    "continent": "Africa",
    "pop": 11801151,
    "z": 3.6
   },
   "geometry": {
    "type": "Point",
    "coordinates": [
     2.352,
     10.3248
    ]
   }
  },
  {
   "type": "Feature",
   "properties": {
    "name": "Bermuda",
    "iso": "060",
    "iso3": "BMU",
    "continent": "North America",
    "pop": 63918,
    "z": 3.6
   },
   "geometry": {
    "type": "Point",
    "coordinates": [
     -64.7636,
     32.2966
    ]
   }
  },
  {
   "type": "Feature",
   "properties": {
    "name": "Bhutan",
    "iso": "064",
    "iso3": "BTN",
    "continent": "Asia",
    "pop": 763092,
    "z": 3.6
   },
   "geometry": {
    "type": "Point",
    "coordinates": [
     90.0403,
     27.5367
    ]
   }
  },
  {
   "type": "Feature",
   "properties": {
    "name": "Bolivia",
    "iso": "068",
    "iso3": "BOL",
    "continent": "South America",
    "pop": 11513100,
    "z": 2.6
   },
   "geometry": {
    "type": "Point",
    "coordinates": [
     -64.5934,
     -16.666
    ]
   }
  },
  {
   "type": "Feature",
   "properties": {
    "name": "Bosnia and Herz.",
    "iso": "070",
    "iso3": "BIH",
    "continent": "Europe",
    "pop": 3301000,
    "z": 4.1
   },
   "geometry": {
    "type": "Point",
    "coordinates": [
     18.0684,
     44.0911
    ]
   }
  },
  {
   "type": "Feature",
   "properties": {
    "name": "Botswana",
    "iso": "072",
    "iso3": "BWA",
    "continent": "Africa",
    "pop": 2303697,
    "z": 3.6
   },
   "geometry": {
    "type": "Point",
    "coordinates": [
     24.1792,
     -22.1026
    ]
   }
  },
  {
   "type": "Feature",
   "properties": {
    "name": "Br. Indian Ocean Ter.",
    "iso": "086",
    "iso3": "IOT",
    "continent": "Seven seas (open ocean)",
    "pop": 3000,
    "z": 4.6
   },
   "geometry": {
    "type": "Point",
    "coordinates": [
     71.3483,
     -6.1908
    ]
   }
  },
  {
   "type": "Feature",
   "properties": {
    "name": "Brazil",
    "iso": "076",
    "iso3": "BRA",
    "continent": "South America",
    "pop": 211049527,
    "z": 1.4
   },
   "geometry": {
    "type": "Point",
    "coordinates": [
     -49.5594,
     -12.0987
    ]
   }
  },
  {
   "type": "Feature",
   "properties": {
    "name": "British Virgin Is.",
    "iso": "092",
    "iso3": "VGB",
    "continent": "North America",
    "pop": 30030,
    "z": 4.6
   },
   "geometry": {
    "type": "Point",
    "coordinates": [
     -64.6366,
     18.4266
    ]
   }
  },
  {
   "type": "Feature",
   "properties": {
    "name": "Brunei",
    "iso": "096",
    "iso3": "BRN",
    "continent": "Asia",
    "pop": 433285,
    "z": 3.6
   },
   "geometry": {
    "type": "Point",
    "coordinates": [
     114.5519,
     4.4483
    ]
   }
  },
  {
   "type": "Feature",
   "properties": {
    "name": "Bulgaria",
    "iso": "100",
    "iso3": "BGR",
    "continent": "Europe",
    "pop": 6975761,
    "z": 3.6
   },
   "geometry": {
    "type": "Point",
    "coordinates": [
     25.1571,
     42.5088
    ]
   }
  },
  {
   "type": "Feature",
   "properties": {
    "name": "Burkina Faso",
    "iso": "854",
    "iso3": "BFA",
    "continent": "Africa",
    "pop": 20321378,
    "z": 2.6
   },
   "geometry": {
    "type": "Point",
    "coordinates": [
     -1.3639,
     12.673
    ]
   }
  },
  {
   "type": "Feature",
   "properties": {
    "name": "Burundi",
    "iso": "108",
    "iso3": "BDI",
    "continent": "Africa",
    "pop": 11530580,
    "z": 3.6
   },
   "geometry": {
    "type": "Point",
    "coordinates": [
     29.9171,
     -3.3328
    ]
   }
  },
  {
   "type": "Feature",
   "properties": {
    "name": "Cabo Verde",
    "iso": "132",
    "iso3": "CPV",
    "continent": "Africa",
    "pop": 549935,
    "z": 3.6
   },
   "geometry": {
    "type": "Point",
    "coordinates": [
     -23.6394,
     15.0748
    ]
   }
  },
  {
   "type": "Feature",
   "properties": {
    "name": "Cambodia",
    "iso": "116",
    "iso3": "KHM",
    "continent": "Asia",
    "pop": 16486542,
    "z": 2.6
   },
   "geometry": {
    "type": "Point",
    "coordinates": [
     104.5049,
     12.6476
    ]
   }
  },
  {
   "type": "Feature",
   "properties": {
    "name": "Cameroon",
    "iso": "120",
    "iso3": "CMR",
    "continent": "Africa",
    "pop": 25876380,
    "z": 2.6
   },
   "geometry": {
    "type": "Point",
    "coordinates": [
     12.4735,
     4.585
    ]
   }
  },
  {
   "type": "Feature",
   "properties": {
    "name": "Canada",
    "iso": "124",
    "iso3": "CAN",
    "continent": "North America",
    "pop": 37589262,
    "z": 1.4
   },
   "geometry": {
    "type": "Point",
    "coordinates": [
     -101.9107,
     60.3243
    ]
   }
  },
  {
   "type": "Feature",
   "properties": {
    "name": "Cayman Is.",
    "iso": "136",
    "iso3": "CYM",
    "continent": "North America",
    "pop": 64948,
    "z": 4.6
   },
   "geometry": {
    "type": "Point",
    "coordinates": [
     -81.2405,
     19.3199
    ]
   }
  },
  {
   "type": "Feature",
   "properties": {
    "name": "Central African Rep.",
    "iso": "140",
    "iso3": "CAF",
    "continent": "Africa",
    "pop": 4745185,
    "z": 3.6
   },
   "geometry": {
    "type": "Point",
    "coordinates": [
     20.9069,
     6.9897
    ]
   }
  },
  {
   "type": "Feature",
   "properties": {
    "name": "Chad",
    "iso": "148",
    "iso3": "TCD",
    "continent": "Africa",
    "pop": 15946876,
    "z": 2.6
   },
   "geometry": {
    "type": "Point",
    "coordinates": [
     18.645,
     15.143
    ]
   }
  },
  {
   "type": "Feature",
   "properties": {
    "name": "Chile",
    "iso": "152",
    "iso3": "CHL",
    "continent": "South America",
    "pop": 18952038,
    "z": 1.4
   },
   "geometry": {
    "type": "Point",
    "coordinates": [
     -72.3189,
     -38.1518
    ]
   }
  },
  {
   "type": "Feature",
   "properties": {
    "name": "China",
    "iso": "156",
    "iso3": "CHN",
    "continent": "Asia",
    "pop": 1397715000,
    "z": 1.4
   },
   "geometry": {
    "type": "Point",
    "coordinates": [
     106.3373,
     32.4982
    ]
   }
  },
  {
   "type": "Feature",
   "properties": {
    "name": "Colombia",
    "iso": "170",
    "iso3": "COL",
    "continent": "South America",
    "pop": 50339443,
    "z": 2.6
   },
   "geometry": {
    "type": "Point",
    "coordinates": [
     -73.1743,
     3.3731
    ]
   }
  },
  {
   "type": "Feature",
   "properties": {
    "name": "Comoros",
    "iso": "174",
    "iso3": "COM",
    "continent": "Africa",
    "pop": 850886,
    "z": 3.6
   },
   "geometry": {
    "type": "Point",
    "coordinates": [
     43.3181,
     -11.7277
    ]
   }
  },
  {
   "type": "Feature",
   "properties": {
    "name": "Congo",
    "iso": "178",
    "iso3": "COG",
    "continent": "Africa",
    "pop": 5380508,
    "z": 3.6
   },
   "geometry": {
    "type": "Point",
    "coordinates": [
     15.9005,
     0.1423
    ]
   }
  },
  {
   "type": "Feature",
   "properties": {
    "name": "Cook Is.",
    "iso": "184",
    "iso3": "COK",
    "continent": "Oceania",
    "pop": 17459,
    "z": 3.6
   },
   "geometry": {
    "type": "Point",
    "coordinates": [
     -159.7857,
     -21.216
    ]
   }
  },
  {
   "type": "Feature",
   "properties": {
    "name": "Costa Rica",
    "iso": "188",
    "iso3": "CRI",
    "continent": "North America",
    "pop": 5047561,
    "z": 2.1
   },
   "geometry": {
    "type": "Point",
    "coordinates": [
     -84.0779,
     10.0651
    ]
   }
  },
  {
   "type": "Feature",
   "properties": {
    "name": "Côte d'Ivoire",
    "iso": "384",
    "iso3": "CIV",
    "continent": "Africa",
    "pop": 25716544,
    "z": 2.1
   },
   "geometry": {
    "type": "Point",
    "coordinates": [
     -5.5686,
     7.4914
    ]
   }
  },
  {
   "type": "Feature",
   "properties": {
    "name": "Croatia",
    "iso": "191",
    "iso3": "HRV",
    "continent": "Europe",
    "pop": 4067500,
    "z": 3.6
   },
   "geometry": {
    "type": "Point",
    "coordinates": [
     16.3724,
     45.8058
    ]
   }
  },
  {
   "type": "Feature",
   "properties": {
    "name": "Cuba",
    "iso": "192",
    "iso3": "CUB",
    "continent": "North America",
    "pop": 11333483,
    "z": 2.3
   },
   "geometry": {
    "type": "Point",
    "coordinates": [
     -77.9759,
     21.334
    ]
   }
  },
  {
   "type": "Feature",
   "properties": {
    "name": "Curaçao",
    "iso": "531",
    "iso3": "CUW",
    "continent": "North America",
    "pop": 157538,
    "z": 4.6
   },
   "geometry": {
    "type": "Point",
    "coordinates": [
     -68.9206,
     12.145
    ]
   }
  },
  {
   "type": "Feature",
   "properties": {
    "name": "Cyprus",
    "iso": "196",
    "iso3": "CYP",
    "continent": "Asia",
    "pop": 1198575,
    "z": 4.1
   },
   "geometry": {
    "type": "Point",
    "coordinates": [
     33.0842,
     34.9133
    ]
   }
  },
  {
   "type": "Feature",
   "properties": {
    "name": "Czechia",
    "iso": "203",
    "iso3": "CZE",
    "continent": "Europe",
    "pop": 10669709,
    "z": 3.6
   },
   "geometry": {
    "type": "Point",
    "coordinates": [
     15.3776,
     49.8824
    ]
   }
  },
  {
   "type": "Feature",
   "properties": {
    "name": "Dem. Rep. Congo",
    "iso": "180",
    "iso3": "COD",
    "continent": "Africa",
    "pop": 86790567,
    "z": 1.6
   },
   "geometry": {
    "type": "Point",
    "coordinates": [
     23.4588,
     -1.8582
    ]
   }
  },
  {
   "type": "Feature",
   "properties": {
    "name": "Denmark",
    "iso": "208",
    "iso3": "DNK",
    "continent": "Europe",
    "pop": 5818553,
    "z": 2.6
   },
   "geometry": {
    "type": "Point",
    "coordinates": [
     9.0182,
     55.967
    ]
   }
  },
  {
   "type": "Feature",
   "properties": {
    "name": "Djibouti",
    "iso": "262",
    "iso3": "DJI",
    "continent": "Africa",
    "pop": 973560,
    "z": 3.6
   },
   "geometry": {
    "type": "Point",
    "coordinates": [
     42.4988,
     11.9763
    ]
   }
  },
  {
   "type": "Feature",
   "properties": {
    "name": "Dominica",
    "iso": "212",
    "iso3": "DMA",
    "continent": "North America",
    "pop": 71808,
    "z": 3.6
   },
   "geometry": {
    "type": "Point",
    "coordinates": [
     -61.345,
     15.4588
    ]
   }
  },
  {
   "type": "Feature",
   "properties": {
    "name": "Dominican Rep.",
    "iso": "214",
    "iso3": "DOM",
    "continent": "North America",
    "pop": 10738958,
    "z": 4.1
   },
   "geometry": {
    "type": "Point",
    "coordinates": [
     -70.654,
     19.1041
    ]
   }
  },
  {
   "type": "Feature",
   "properties": {
    "name": "Ecuador",
    "iso": "218",
    "iso3": "ECU",
    "continent": "South America",
    "pop": 17373662,
    "z": 2.6
   },
   "geometry": {
    "type": "Point",
    "coordinates": [
     -78.1884,
     -1.2591
    ]
   }
  },
  {
   "type": "Feature",
   "properties": {
    "name": "Egypt",
    "iso": "818",
    "iso3": "EGY",
    "continent": "Africa",
    "pop": 100388073,
    "z": 1.4
   },
   "geometry": {
    "type": "Point",
    "coordinates": [
     29.4458,
     26.1862
    ]
   }
  },
  {
   "type": "Feature",
   "properties": {
    "name": "El Salvador",
    "iso": "222",
    "iso3": "SLV",
    "continent": "North America",
    "pop": 6453553,
    "z": 4.6
   },
   "geometry": {
    "type": "Point",
    "coordinates": [
     -88.8901,
     13.6854
    ]
   }
  },
  {
   "type": "Feature",
   "properties": {
    "name": "Eq. Guinea",
    "iso": "226",
    "iso3": "GNQ",
    "continent": "Africa",
    "pop": 1355986,
    "z": 3.6
   },
   "geometry": {
    "type": "Point",
    "coordinates": [
     8.9902,
     2.333
    ]
   }
  },
  {
   "type": "Feature",
   "properties": {
    "name": "Eritrea",
    "iso": "232",
    "iso3": "ERI",
    "continent": "Africa",
    "pop": 6081196,
    "z": 3.6
   },
   "geometry": {
    "type": "Point",
    "coordinates": [
     38.2856,
     15.7874
    ]
   }
  },
  {
   "type": "Feature",
   "properties": {
    "name": "Estonia",
    "iso": "233",
    "iso3": "EST",
    "continent": "Europe",
    "pop": 1326590,
    "z": 2.6
   },
   "geometry": {
    "type": "Point",
    "coordinates": [
     25.8671,
     58.7249
    ]
   }
  },
  {
   "type": "Feature",
   "properties": {
    "name": "eSwatini",
    "iso": "748",
    "iso3": "SWZ",
    "continent": "Africa",
    "pop": 1148130,
    "z": 3.6
   },
   "geometry": {
    "type": "Point",
    "coordinates": [
     31.4673,
     -26.5337
    ]
   }
  },
  {
   "type": "Feature",
   "properties": {
    "name": "Ethiopia",
    "iso": "231",
    "iso3": "ETH",
    "continent": "Africa",
    "pop": 112078730,
    "z": 1.6
   },
   "geometry": {
    "type": "Point",
    "coordinates": [
     39.0886,
     8.0328
    ]
   }
  },
  {
   "type": "Feature",
   "properties": {
    "name": "Faeroe Is.",
    "iso": "234",
    "iso3": "FRO",
    "continent": "Europe",
    "pop": 48678,
    "z": 3.6
   },
   "geometry": {
    "type": "Point",
    "coordinates": [
     -7.0584,
     62.1856
    ]
   }
  },
  {
   "type": "Feature",
   "properties": {
    "name": "Falkland Is.",
    "iso": "238",
    "iso3": "FLK",
    "continent": "South America",
    "pop": 3398,
    "z": 4.1
   },
   "geometry": {
    "type": "Point",
    "coordinates": [
     -58.7386,
     -51.6089
    ]
   }
  },
  {
   "type": "Feature",
   "properties": {
    "name": "Fiji",
    "iso": "242",
    "iso3": "FJI",
    "continent": "Oceania",
    "pop": 889953,
    "z": 2.6
   },
   "geometry": {
    "type": "Point",
    "coordinates": [
     177.9754,
     -17.8261
    ]
   }
  },
  {
   "type": "Feature",
   "properties": {
    "name": "Finland",
    "iso": "246",
    "iso3": "FIN",
    "continent": "Europe",
    "pop": 5520314,
    "z": 2.6
   },
   "geometry": {
    "type": "Point",
    "coordinates": [
     27.2764,
     63.2524
    ]
   }
  },
  {
   "type": "Feature",
   "properties": {
    "name": "Fr. Polynesia",
    "iso": "258",
    "iso3": "PYF",
    "continent": "Oceania",
    "pop": 279287,
    "z": 3.1
   },
   "geometry": {
    "type": "Point",
    "coordinates": [
     -149.4616,
     -17.6281
    ]
   }
  },
  {
   "type": "Feature",
   "properties": {
    "name": "Fr. S. Antarctic Lands",
    "iso": "260",
    "iso3": "ATF",
    "continent": "Seven seas (open ocean)",
    "pop": 140,
    "z": 3.6
   },
   "geometry": {
    "type": "Point",
    "coordinates": [
     69.1221,
     -49.3037
    ]
   }
  },
  {
   "type": "Feature",
   "properties": {
    "name": "France",
    "iso": "250",
    "iso3": "FRA",
    "continent": "Europe",
    "pop": 67059887,
    "z": 1.4
   },
   "geometry": {
    "type": "Point",
    "coordinates": [
     2.5523,
     46.6961
    ]
   }
  },
  {
   "type": "Feature",
   "properties": {
    "name": "Gabon",
    "iso": "266",
    "iso3": "GAB",
    "continent": "Africa",
    "pop": 2172579,
    "z": 2.6
   },
   "geometry": {
    "type": "Point",
    "coordinates": [
     11.8359,
     -0.4377
    ]
   }
  },
  {
   "type": "Feature",
   "properties": {
    "name": "Gambia",
    "iso": "270",
    "iso3": "GMB",
    "continent": "Africa",
    "pop": 2347706,
    "z": 4.6
   },
   "geometry": {
    "type": "Point",
    "coordinates": [
     -14.9983,
     13.6417
    ]
   }
  },
  {
   "type": "Feature",
   "properties": {
    "name": "Georgia",
    "iso": "268",
    "iso3": "GEO",
    "continent": "Asia",
    "pop": 3720382,
    "z": 3.6
   },
   "geometry": {
    "type": "Point",
    "coordinates": [
     43.7357,
     41.8701
    ]
   }
  },
  {
   "type": "Feature",
   "properties": {
    "name": "Germany",
    "iso": "276",
    "iso3": "DEU",
    "continent": "Europe",
    "pop": 83132799,
    "z": 1.4
   },
   "geometry": {
    "type": "Point",
    "coordinates": [
     9.6783,
     50.9617
    ]
   }
  },
  {
   "type": "Feature",
   "properties": {
    "name": "Ghana",
    "iso": "288",
    "iso3": "GHA",
    "continent": "Africa",
    "pop": 30417856,
    "z": 2.3
   },
   "geometry": {
    "type": "Point",
    "coordinates": [
     -1.0369,
     7.7176
    ]
   }
  },
  {
   "type": "Feature",
   "properties": {
    "name": "Greece",
    "iso": "300",
    "iso3": "GRC",
    "continent": "Europe",
    "pop": 10716322,
    "z": 2.3
   },
   "geometry": {
    "type": "Point",
    "coordinates": [
     21.7257,
     39.4928
    ]
   }
  },
  {
   "type": "Feature",
   "properties": {
    "name": "Greenland",
    "iso": "304",
    "iso3": "GRL",
    "continent": "North America",
    "pop": 56225,
    "z": 1.4
   },
   "geometry": {
    "type": "Point",
    "coordinates": [
     -39.3353,
     74.3194
    ]
   }
  },
  {
   "type": "Feature",
   "properties": {
    "name": "Grenada",
    "iso": "308",
    "iso3": "GRD",
    "continent": "North America",
    "pop": 112003,
    "z": 3.6
   },
   "geometry": {
    "type": "Point",
    "coordinates": [
     -61.6805,
     12.1132
    ]
   }
  },
  {
   "type": "Feature",
   "properties": {
    "name": "Guam",
    "iso": "316",
    "iso3": "GUM",
    "continent": "Oceania",
    "pop": 167294,
    "z": 2.6
   },
   "geometry": {
    "type": "Point",
    "coordinates": [
     144.7036,
     13.3542
    ]
   }
  },
  {
   "type": "Feature",
   "properties": {
    "name": "Guatemala",
    "iso": "320",
    "iso3": "GTM",
    "continent": "North America",
    "pop": 16604026,
    "z": 2.6
   },
   "geometry": {
    "type": "Point",
    "coordinates": [
     -90.4971,
     14.9821
    ]
   }
  },
  {
   "type": "Feature",
   "properties": {
    "name": "Guernsey",
    "iso": "831",
    "iso3": "GGY",
    "continent": "Europe",
    "pop": 62792,
    "z": 4.6
   },
   "geometry": {
    "type": "Point",
    "coordinates": [
     -2.5617,
     49.4635
    ]
   }
  },
  {
   "type": "Feature",
   "properties": {
    "name": "Guinea",
    "iso": "324",
    "iso3": "GIN",
    "continent": "Africa",
    "pop": 12771246,
    "z": 2.6
   },
   "geometry": {
    "type": "Point",
    "coordinates": [
     -10.0164,
     10.6185
    ]
   }
  },
  {
   "type": "Feature",
   "properties": {
    "name": "Guinea-Bissau",
    "iso": "624",
    "iso3": "GNB",
    "continent": "Africa",
    "pop": 1920922,
    "z": 4.6
   },
   "geometry": {
    "type": "Point",
    "coordinates": [
     -14.5241,
     12.1637
    ]
   }
  },
  {
   "type": "Feature",
   "properties": {
    "name": "Guyana",
    "iso": "328",
    "iso3": "GUY",
    "continent": "South America",
    "pop": 782766,
    "z": 3.6
   },
   "geometry": {
    "type": "Point",
    "coordinates": [
     -58.9426,
     5.1243
    ]
   }
  },
  {
   "type": "Feature",
   "properties": {
    "name": "Haiti",
    "iso": "332",
    "iso3": "HTI",
    "continent": "North America",
    "pop": 11263077,
    "z": 3.6
   },
   "geometry": {
    "type": "Point",
    "coordinates": [
     -72.2241,
     19.2638
    ]
   }
  },
  {
   "type": "Feature",
   "properties": {
    "name": "Heard I. and McDonald Is.",
    "iso": "334",
    "iso3": "HMD",
    "continent": "Seven seas (open ocean)",
    "pop": 0,
    "z": 4.1
   },
   "geometry": {
    "type": "Point",
    "coordinates": [
     73.5052,
     -53.1035
    ]
   }
  },
  {
   "type": "Feature",
   "properties": {
    "name": "Honduras",
    "iso": "340",
    "iso3": "HND",
    "continent": "North America",
    "pop": 9746117,
    "z": 4.1
   },
   "geometry": {
    "type": "Point",
    "coordinates": [
     -86.8876,
     14.7948
    ]
   }
  },
  {
   "type": "Feature",
   "properties": {
    "name": "Hong Kong",
    "iso": "344",
    "iso3": "HKG",
    "continent": "Asia",
    "pop": 7507400,
    "z": 3.6
   },
   "geometry": {
    "type": "Point",
    "coordinates": [
     114.0978,
     22.4488
    ]
   }
  },
  {
   "type": "Feature",
   "properties": {
    "name": "Hungary",
    "iso": "348",
    "iso3": "HUN",
    "continent": "Europe",
    "pop": 9769949,
    "z": 3.6
   },
   "geometry": {
    "type": "Point",
    "coordinates": [
     19.4479,
     47.0868
    ]
   }
  },
  {
   "type": "Feature",
   "properties": {
    "name": "Iceland",
    "iso": "352",
    "iso3": "ISL",
    "continent": "Europe",
    "pop": 361313,
    "z": 1.6
   },
   "geometry": {
    "type": "Point",
    "coordinates": [
     -18.6737,
     64.7793
    ]
   }
  },
  {
   "type": "Feature",
   "properties": {
    "name": "India",
    "iso": "356",
    "iso3": "IND",
    "continent": "Asia",
    "pop": 1366417754,
    "z": 1.4
   },
   "geometry": {
    "type": "Point",
    "coordinates": [
     79.3581,
     22.6869
    ]
   }
  },
  {
   "type": "Feature",
   "properties": {
    "name": "Indonesia",
    "iso": "360",
    "iso3": "IDN",
    "continent": "Asia",
    "pop": 270625568,
    "z": 1.4
   },
   "geometry": {
    "type": "Point",
    "coordinates": [
     101.8929,
     -0.9544
    ]
   }
  },
  {
   "type": "Feature",
   "properties": {
    "name": "Iran",
    "iso": "364",
    "iso3": "IRN",
    "continent": "Asia",
    "pop": 82913906,
    "z": 2.1
   },
   "geometry": {
    "type": "Point",
    "coordinates": [
     54.9315,
     32.1662
    ]
   }
  },
  {
   "type": "Feature",
   "properties": {
    "name": "Iraq",
    "iso": "368",
    "iso3": "IRQ",
    "continent": "Asia",
    "pop": 39309783,
    "z": 2.6
   },
   "geometry": {
    "type": "Point",
    "coordinates": [
     43.2618,
     33.094
    ]
   }
  },
  {
   "type": "Feature",
   "properties": {
    "name": "Ireland",
    "iso": "372",
    "iso3": "IRL",
    "continent": "Europe",
    "pop": 4941444,
    "z": 2.6
   },
   "geometry": {
    "type": "Point",
    "coordinates": [
     -7.7986,
     53.0787
    ]
   }
  },
  {
   "type": "Feature",
   "properties": {
    "name": "Isle of Man",
    "iso": "833",
    "iso3": "IMN",
    "continent": "Europe",
    "pop": 84584,
    "z": 4.6
   },
   "geometry": {
    "type": "Point",
    "coordinates": [
     -4.5301,
     54.2208
    ]
   }
  },
  {
   "type": "Feature",
   "properties": {
    "name": "Israel",
    "iso": "376",
    "iso3": "ISR",
    "continent": "Asia",
    "pop": 9053300,
    "z": 2.6
   },
   "geometry": {
    "type": "Point",
    "coordinates": [
     34.8479,
     30.9111
    ]
   }
  },
  {
   "type": "Feature",
   "properties": {
    "name": "Italy",
    "iso": "380",
    "iso3": "ITA",
    "continent": "Europe",
    "pop": 60297396,
    "z": 1.6
   },
   "geometry": {
    "type": "Point",
    "coordinates": [
     11.0769,
     44.7325
    ]
   }
  },
  {
   "type": "Feature",
   "properties": {
    "name": "Jamaica",
    "iso": "388",
    "iso3": "JAM",
    "continent": "North America",
    "pop": 2948279,
    "z": 3.6
   },
   "geometry": {
    "type": "Point",
    "coordinates": [
     -77.3188,
     18.1371
    ]
   }
  },
  {
   "type": "Feature",
   "properties": {
    "name": "Japan",
    "iso": "392",
    "iso3": "JPN",
    "continent": "Asia",
    "pop": 126264931,
    "z": 1.4
   },
   "geometry": {
    "type": "Point",
    "coordinates": [
     138.4422,
     36.1425
    ]
   }
  },
  {
   "type": "Feature",
   "properties": {
    "name": "Jersey",
    "iso": "832",
    "iso3": "JEY",
    "continent": "Europe",
    "pop": 107800,
    "z": 4.6
   },
   "geometry": {
    "type": "Point",
    "coordinates": [
     -2.0901,
     49.2208
    ]
   }
  },
  {
   "type": "Feature",
   "properties": {
    "name": "Jordan",
    "iso": "400",
    "iso3": "JOR",
    "continent": "Asia",
    "pop": 10101694,
    "z": 3.6
   },
   "geometry": {
    "type": "Point",
    "coordinates": [
     36.376,
     30.805
    ]
   }
  },
  {
   "type": "Feature",
   "properties": {
    "name": "Kazakhstan",
    "iso": "398",
    "iso3": "KAZ",
    "continent": "Asia",
    "pop": 18513930,
    "z": 2.3
   },
   "geometry": {
    "type": "Point",
    "coordinates": [
     68.6855,
     49.0541
    ]
   }
  },
  {
   "type": "Feature",
   "properties": {
    "name": "Kenya",
    "iso": "404",
    "iso3": "KEN",
    "continent": "Africa",
    "pop": 52573973,
    "z": 1.4
   },
   "geometry": {
    "type": "Point",
    "coordinates": [
     37.9076,
     0.549
    ]
   }
  },
  {
   "type": "Feature",
   "properties": {
    "name": "Kiribati",
    "iso": "296",
    "iso3": "KIR",
    "continent": "Oceania",
    "pop": 117606,
    "z": 4.6
   },
   "geometry": {
    "type": "Point",
    "coordinates": [
     -157.3846,
     1.8204
    ]
   }
  },
  {
   "type": "Feature",
   "properties": {
    "name": "Kuwait",
    "iso": "414",
    "iso3": "KWT",
    "continent": "Asia",
    "pop": 4207083,
    "z": 4.6
   },
   "geometry": {
    "type": "Point",
    "coordinates": [
     47.314,
     29.4136
    ]
   }
  },
  {
   "type": "Feature",
   "properties": {
    "name": "Kyrgyzstan",
    "iso": "417",
    "iso3": "KGZ",
    "continent": "Asia",
    "pop": 6456900,
    "z": 2.6
   },
   "geometry": {
    "type": "Point",
    "coordinates": [
     74.5326,
     41.6685
    ]
   }
  },
  {
   "type": "Feature",
   "properties": {
    "name": "Laos",
    "iso": "418",
    "iso3": "LAO",
    "continent": "Asia",
    "pop": 7169455,
    "z": 3.6
   },
   "geometry": {
    "type": "Point",
    "coordinates": [
     102.5339,
     19.4318
    ]
   }
  },
  {
   "type": "Feature",
   "properties": {
    "name": "Latvia",
    "iso": "428",
    "iso3": "LVA",
    "continent": "Europe",
    "pop": 1912789,
    "z": 3.6
   },
   "geometry": {
    "type": "Point",
    "coordinates": [
     25.4587,
     57.0669
    ]
   }
  },
  {
   "type": "Feature",
   "properties": {
    "name": "Lebanon",
    "iso": "422",
    "iso3": "LBN",
    "continent": "Asia",
    "pop": 6855713,
    "z": 3.6
   },
   "geometry": {
    "type": "Point",
    "coordinates": [
     35.9929,
     34.1334
    ]
   }
  },
  {
   "type": "Feature",
   "properties": {
    "name": "Lesotho",
    "iso": "426",
    "iso3": "LSO",
    "continent": "Africa",
    "pop": 2125268,
    "z": 3.6
   },
   "geometry": {
    "type": "Point",
    "coordinates": [
     28.2466,
     -29.4802
    ]
   }
  },
  {
   "type": "Feature",
   "properties": {
    "name": "Liberia",
    "iso": "430",
    "iso3": "LBR",
    "continent": "Africa",
    "pop": 4937374,
    "z": 3.6
   },
   "geometry": {
    "type": "Point",
    "coordinates": [
     -9.4604,
     6.4472
    ]
   }
  },
  {
   "type": "Feature",
   "properties": {
    "name": "Libya",
    "iso": "434",
    "iso3": "LBY",
    "continent": "Africa",
    "pop": 6777452,
    "z": 2.6
   },
   "geometry": {
    "type": "Point",
    "coordinates": [
     18.011,
     26.6389
    ]
   }
  },
  {
   "type": "Feature",
   "properties": {
    "name": "Liechtenstein",
    "iso": "438",
    "iso3": "LIE",
    "continent": "Europe",
    "pop": 38019,
    "z": 4.6
   },
   "geometry": {
    "type": "Point",
    "coordinates": [
     9.5594,
     47.1114
    ]
   }
  },
  {
   "type": "Feature",
   "properties": {
    "name": "Lithuania",
    "iso": "440",
    "iso3": "LTU",
    "continent": "Europe",
    "pop": 2786844,
    "z": 3.6
   },
   "geometry": {
    "type": "Point",
    "coordinates": [
     24.0899,
     55.1037
    ]
   }
  },
  {
   "type": "Feature",
   "properties": {
    "name": "Luxembourg",
    "iso": "442",
    "iso3": "LUX",
    "continent": "Europe",
    "pop": 619896,
    "z": 5.3
   },
   "geometry": {
    "type": "Point",
    "coordinates": [
     6.0776,
     49.7337
    ]
   }
  },
  {
   "type": "Feature",
   "properties": {
    "name": "Macao",
    "iso": "446",
    "iso3": "MAC",
    "continent": "Asia",
    "pop": 640445,
    "z": 3.6
   },
   "geometry": {
    "type": "Point",
    "coordinates": [
     113.556,
     22.1297
    ]
   }
  },
  {
   "type": "Feature",
   "properties": {
    "name": "Macedonia",
    "iso": "807",
    "iso3": "MKD",
    "continent": "Europe",
    "pop": 2083459,
    "z": 4.6
   },
   "geometry": {
    "type": "Point",
    "coordinates": [
     21.5558,
     41.5582
    ]
   }
  },
  {
   "type": "Feature",
   "properties": {
    "name": "Madagascar",
    "iso": "450",
    "iso3": "MDG",
    "continent": "Africa",
    "pop": 26969307,
    "z": 2.3
   },
   "geometry": {
    "type": "Point",
    "coordinates": [
     46.7042,
     -18.6283
    ]
   }
  },
  {
   "type": "Feature",
   "properties": {
    "name": "Malawi",
    "iso": "454",
    "iso3": "MWI",
    "continent": "Africa",
    "pop": 18628747,
    "z": 3.6
   },
   "geometry": {
    "type": "Point",
    "coordinates": [
     33.6081,
     -13.3867
    ]
   }
  },
  {
   "type": "Feature",
   "properties": {
    "name": "Malaysia",
    "iso": "458",
    "iso3": "MYS",
    "continent": "Asia",
    "pop": 31949777,
    "z": 2.6
   },
   "geometry": {
    "type": "Point",
    "coordinates": [
     113.8371,
     2.5287
    ]
   }
  },
  {
   "type": "Feature",
   "properties": {
    "name": "Maldives",
    "iso": "462",
    "iso3": "MDV",
    "continent": "Seven seas (open ocean)",
    "pop": 530953,
    "z": 3.6
   },
   "geometry": {
    "type": "Point",
    "coordinates": [
     73.5076,
     4.1744
    ]
   }
  },
  {
   "type": "Feature",
   "properties": {
    "name": "Mali",
    "iso": "466",
    "iso3": "MLI",
    "continent": "Africa",
    "pop": 19658031,
    "z": 2.6
   },
   "geometry": {
    "type": "Point",
    "coordinates": [
     -2.0385,
     18.6927
    ]
   }
  },
  {
   "type": "Feature",
   "properties": {
    "name": "Malta",
    "iso": "470",
    "iso3": "MLT",
    "continent": "Europe",
    "pop": 502653,
    "z": 3.6
   },
   "geometry": {
    "type": "Point",
    "coordinates": [
     14.433,
     35.8929
    ]
   }
  },
  {
   "type": "Feature",
   "properties": {
    "name": "Marshall Is.",
    "iso": "584",
    "iso3": "MHL",
    "continent": "Oceania",
    "pop": 58791,
    "z": 4.6
   },
   "geometry": {
    "type": "Point",
    "coordinates": [
     171.1936,
     7.0826
    ]
   }
  },
  {
   "type": "Feature",
   "properties": {
    "name": "Mauritania",
    "iso": "478",
    "iso3": "MRT",
    "continent": "Africa",
    "pop": 4525696,
    "z": 2.6
   },
   "geometry": {
    "type": "Point",
    "coordinates": [
     -9.7403,
     19.5871
    ]
   }
  },
  {
   "type": "Feature",
   "properties": {
    "name": "Mauritius",
    "iso": "480",
    "iso3": "MUS",
    "continent": "Seven seas (open ocean)",
    "pop": 1265711,
    "z": 3.6
   },
   "geometry": {
    "type": "Point",
    "coordinates": [
     57.5658,
     -20.2995
    ]
   }
  },
  {
   "type": "Feature",
   "properties": {
    "name": "Mexico",
    "iso": "484",
    "iso3": "MEX",
    "continent": "North America",
    "pop": 127575529,
    "z": 1.6
   },
   "geometry": {
    "type": "Point",
    "coordinates": [
     -102.2894,
     23.92
    ]
   }
  },
  {
   "type": "Feature",
   "properties": {
    "name": "Micronesia",
    "iso": "583",
    "iso3": "FSM",
    "continent": "Oceania",
    "pop": 113815,
    "z": 4.6
   },
   "geometry": {
    "type": "Point",
    "coordinates": [
     158.234,
     6.8876
    ]
   }
  },
  {
   "type": "Feature",
   "properties": {
    "name": "Moldova",
    "iso": "498",
    "iso3": "MDA",
    "continent": "Europe",
    "pop": 2657637,
    "z": 4.6
   },
   "geometry": {
    "type": "Point",
    "coordinates": [
     28.4879,
     47.435
    ]
   }
  },
  {
   "type": "Feature",
   "properties": {
    "name": "Monaco",
    "iso": "492",
    "iso3": "MCO",
    "continent": "Europe",
    "pop": 38964,
    "z": 4.6
   },
   "geometry": {
    "type": "Point",
    "coordinates": [
     7.3983,
     43.7397
    ]
   }
  },
  {
   "type": "Feature",
   "properties": {
    "name": "Mongolia",
    "iso": "496",
    "iso3": "MNG",
    "continent": "Asia",
    "pop": 3225167,
    "z": 2.6
   },
   "geometry": {
    "type": "Point",
    "coordinates": [
     104.1504,
     45.9975
    ]
   }
  },
  {
   "type": "Feature",
   "properties": {
    "name": "Montenegro",
    "iso": "499",
    "iso3": "MNE",
    "continent": "Europe",
    "pop": 622137,
    "z": 4.6
   },
   "geometry": {
    "type": "Point",
    "coordinates": [
     19.1437,
     42.8031
    ]
   }
  },
  {
   "type": "Feature",
   "properties": {
    "name": "Montserrat",
    "iso": "500",
    "iso3": "MSR",
    "continent": "North America",
    "pop": 4649,
    "z": 4.6
   },
   "geometry": {
    "type": "Point",
    "coordinates": [
     -62.1883,
     16.7372
    ]
   }
  },
  {
   "type": "Feature",
   "properties": {
    "name": "Morocco",
    "iso": "504",
    "iso3": "MAR",
    "continent": "Africa",
    "pop": 36471769,
    "z": 2.3
   },
   "geometry": {
    "type": "Point",
    "coordinates": [
     -7.1873,
     31.6507
    ]
   }
  },
  {
   "type": "Feature",
   "properties": {
    "name": "Mozambique",
    "iso": "508",
    "iso3": "MOZ",
    "continent": "Africa",
    "pop": 30366036,
    "z": 2.6
   },
   "geometry": {
    "type": "Point",
    "coordinates": [
     37.8379,
     -13.9432
    ]
   }
  },
  {
   "type": "Feature",
   "properties": {
    "name": "Myanmar",
    "iso": "104",
    "iso3": "MMR",
    "continent": "Asia",
    "pop": 54045420,
    "z": 2.6
   },
   "geometry": {
    "type": "Point",
    "coordinates": [
     95.8045,
     21.5739
    ]
   }
  },
  {
   "type": "Feature",
   "properties": {
    "name": "N. Mariana Is.",
    "iso": "580",
    "iso3": "MNP",
    "continent": "Oceania",
    "pop": 57216,
    "z": 4.6
   },
   "geometry": {
    "type": "Point",
    "coordinates": [
     145.7344,
     15.1882
    ]
   }
  },
  {
   "type": "Feature",
   "properties": {
    "name": "Namibia",
    "iso": "516",
    "iso3": "NAM",
    "continent": "Africa",
    "pop": 2494530,
    "z": 2.6
   },
   "geometry": {
    "type": "Point",
    "coordinates": [
     17.1082,
     -20.5753
    ]
   }
  },
  {
   "type": "Feature",
   "properties": {
    "name": "Nauru",
    "iso": "520",
    "iso3": "NRU",
    "continent": "Oceania",
    "pop": 12581,
    "z": 4.6
   },
   "geometry": {
    "type": "Point",
    "coordinates": [
     166.9326,
     -0.5203
    ]
   }
  },
  {
   "type": "Feature",
   "properties": {
    "name": "Nepal",
    "iso": "524",
    "iso3": "NPL",
    "continent": "Asia",
    "pop": 28608710,
    "z": 2.6
   },
   "geometry": {
    "type": "Point",
    "coordinates": [
     83.6399,
     28.2979
    ]
   }
  },
  {
   "type": "Feature",
   "properties": {
    "name": "Netherlands",
    "iso": "528",
    "iso3": "NLD",
    "continent": "Europe",
    "pop": 17332850,
    "z": 3.6
   },
   "geometry": {
    "type": "Point",
    "coordinates": [
     5.6114,
     52.4222
    ]
   }
  },
  {
   "type": "Feature",
   "properties": {
    "name": "New Caledonia",
    "iso": "540",
    "iso3": "NCL",
    "continent": "Oceania",
    "pop": 287800,
    "z": 4.2
   },
   "geometry": {
    "type": "Point",
    "coordinates": [
     165.084,
     -21.0647
    ]
   }
  },
  {
   "type": "Feature",
   "properties": {
    "name": "New Zealand",
    "iso": "554",
    "iso3": "NZL",
    "continent": "Oceania",
    "pop": 4917000,
    "z": 1.6
   },
   "geometry": {
    "type": "Point",
    "coordinates": [
     172.787,
     -39.759
    ]
   }
  },
  {
   "type": "Feature",
   "properties": {
    "name": "Nicaragua",
    "iso": "558",
    "iso3": "NIC",
    "continent": "North America",
    "pop": 6545502,
    "z": 3.6
   },
   "geometry": {
    "type": "Point",
    "coordinates": [
     -85.0693,
     12.6707
    ]
   }
  },
  {
   "type": "Feature",
   "properties": {
    "name": "Niger",
    "iso": "562",
    "iso3": "NER",
    "continent": "Africa",
    "pop": 23310715,
    "z": 2.6
   },
   "geometry": {
    "type": "Point",
    "coordinates": [
     9.5044,
     17.4462
    ]
   }
  },
  {
   "type": "Feature",
   "properties": {
    "name": "Nigeria",
    "iso": "566",
    "iso3": "NGA",
    "continent": "Africa",
    "pop": 200963599,
    "z": 1.4
   },
   "geometry": {
    "type": "Point",
    "coordinates": [
     7.5032,
     9.4398
    ]
   }
  },
  {
   "type": "Feature",
   "properties": {
    "name": "Niue",
    "iso": "570",
    "iso3": "NIU",
    "continent": "Oceania",
    "pop": 1620,
    "z": 3.6
   },
   "geometry": {
    "type": "Point",
    "coordinates": [
     -169.8626,
     -19.046
    ]
   }
  },
  {
   "type": "Feature",
   "properties": {
    "name": "Norfolk Island",
    "iso": "574",
    "iso3": "NFK",
    "continent": "Oceania",
    "pop": 2169,
    "z": 4.1
   },
   "geometry": {
    "type": "Point",
    "coordinates": [
     167.9545,
     -29.033
    ]
   }
  },
  {
   "type": "Feature",
   "properties": {
    "name": "North Korea",
    "iso": "408",
    "iso3": "PRK",
    "continent": "Asia",
    "pop": 25666161,
    "z": 2.6
   },
   "geometry": {
    "type": "Point",
    "coordinates": [
     126.4445,
     39.8853
    ]
   }
  },
  {
   "type": "Feature",
   "properties": {
    "name": "Norway",
    "iso": "578",
    "iso3": "NOR",
    "continent": "Europe",
    "pop": 5347896,
    "z": 2.6
   },
   "geometry": {
    "type": "Point",
    "coordinates": [
     9.68,
     61.3571
    ]
   }
  },
  {
   "type": "Feature",
   "properties": {
    "name": "Oman",
    "iso": "512",
    "iso3": "OMN",
    "continent": "Asia",
    "pop": 4974986,
    "z": 3.6
   },
   "geometry": {
    "type": "Point",
    "coordinates": [
     57.3366,
     22.1204
    ]
   }
  },
  {
   "type": "Feature",
   "properties": {
    "name": "Pakistan",
    "iso": "586",
    "iso3": "PAK",
    "continent": "Asia",
    "pop": 216565318,
    "z": 2.3
   },
   "geometry": {
    "type": "Point",
    "coordinates": [
     68.5456,
     29.3284
    ]
   }
  },
  {
   "type": "Feature",
   "properties": {
    "name": "Palau",
    "iso": "585",
    "iso3": "PLW",
    "continent": "Oceania",
    "pop": 18008,
    "z": 4.6
   },
   "geometry": {
    "type": "Point",
    "coordinates": [
     134.5802,
     7.5183
    ]
   }
  },
  {
   "type": "Feature",
   "properties": {
    "name": "Palestine",
    "iso": "275",
    "iso3": "PSX",
    "continent": "Asia",
    "pop": 4685306,
    "z": 4.1
   },
   "geometry": {
    "type": "Point",
    "coordinates": [
     35.2913,
     32.0474
    ]
   }
  },
  {
   "type": "Feature",
   "properties": {
    "name": "Panama",
    "iso": "591",
    "iso3": "PAN",
    "continent": "North America",
    "pop": 4246439,
    "z": 3.6
   },
   "geometry": {
    "type": "Point",
    "coordinates": [
     -80.3521,
     8.722
    ]
   }
  },
  {
   "type": "Feature",
   "properties": {
    "name": "Papua New Guinea",
    "iso": "598",
    "iso3": "PNG",
    "continent": "Oceania",
    "pop": 8776109,
    "z": 2.1
   },
   "geometry": {
    "type": "Point",
    "coordinates": [
     143.9102,
     -5.6953
    ]
   }
  },
  {
   "type": "Feature",
   "properties": {
    "name": "Paraguay",
    "iso": "600",
    "iso3": "PRY",
    "continent": "South America",
    "pop": 7044636,
    "z": 2.6
   },
   "geometry": {
    "type": "Point",
    "coordinates": [
     -60.1464,
     -21.6745
    ]
   }
  },
  {
   "type": "Feature",
   "properties": {
    "name": "Peru",
    "iso": "604",
    "iso3": "PER",
    "continent": "South America",
    "pop": 32510453,
    "z": 1.6
   },
   "geometry": {
    "type": "Point",
    "coordinates": [
     -72.9002,
     -12.9767
    ]
   }
  },
  {
   "type": "Feature",
   "properties": {
    "name": "Philippines",
    "iso": "608",
    "iso3": "PHL",
    "continent": "Asia",
    "pop": 108116615,
    "z": 2.1
   },
   "geometry": {
    "type": "Point",
    "coordinates": [
     122.465,
     11.198
    ]
   }
  },
  {
   "type": "Feature",
   "properties": {
    "name": "Pitcairn Is.",
    "iso": "612",
    "iso3": "PCN",
    "continent": "Oceania",
    "pop": 54,
    "z": 4.6
   },
   "geometry": {
    "type": "Point",
    "coordinates": [
     -128.3175,
     -24.3646
    ]
   }
  },
  {
   "type": "Feature",
   "properties": {
    "name": "Poland",
    "iso": "616",
    "iso3": "POL",
    "continent": "Europe",
    "pop": 37970874,
    "z": 2.1
   },
   "geometry": {
    "type": "Point",
    "coordinates": [
     19.4905,
     51.9903
    ]
   }
  },
  {
   "type": "Feature",
   "properties": {
    "name": "Portugal",
    "iso": "620",
    "iso3": "PRT",
    "continent": "Europe",
    "pop": 10269417,
    "z": 2.6
   },
   "geometry": {
    "type": "Point",
    "coordinates": [
     -8.2718,
     39.6067
    ]
   }
  },
  {
   "type": "Feature",
   "properties": {
    "name": "Puerto Rico",
    "iso": "630",
    "iso3": "PRI",
    "continent": "North America",
    "pop": 3193694,
    "z": 2.6
   },
   "geometry": {
    "type": "Point",
    "coordinates": [
     -66.4811,
     18.2347
    ]
   }
  },
  {
   "type": "Feature",
   "properties": {
    "name": "Qatar",
    "iso": "634",
    "iso3": "QAT",
    "continent": "Asia",
    "pop": 2832067,
    "z": 3.6
   },
   "geometry": {
    "type": "Point",
    "coordinates": [
     51.1435,
     25.2374
    ]
   }
  },
  {
   "type": "Feature",
   "properties": {
    "name": "Romania",
    "iso": "642",
    "iso3": "ROU",
    "continent": "Europe",
    "pop": 19356544,
    "z": 2.6
   },
   "geometry": {
    "type": "Point",
    "coordinates": [
     24.9726,
     45.7332
    ]
   }
  },
  {
   "type": "Feature",
   "properties": {
    "name": "Russia",
    "iso": "643",
    "iso3": "RUS",
    "continent": "Europe",
    "pop": 144373535,
    "z": 1.4
   },
   "geometry": {
    "type": "Point",
    "coordinates": [
     44.6865,
     58.2494
    ]
   }
  },
  {
   "type": "Feature",
   "properties": {
    "name": "Rwanda",
    "iso": "646",
    "iso3": "RWA",
    "continent": "Africa",
    "pop": 12626950,
    "z": 2.6
   },
   "geometry": {
    "type": "Point",
    "coordinates": [
     30.1039,
     -1.8972
    ]
   }
  },
  {
   "type": "Feature",
   "properties": {
    "name": "S. Geo. and the Is.",
    "iso": "239",
    "iso3": "SGS",
    "continent": "Seven seas (open ocean)",
    "pop": 30,
    "z": 4.6
   },
   "geometry": {
    "type": "Point",
    "coordinates": [
     -31.0632,
     -55.6834
    ]
   }
  },
  {
   "type": "Feature",
   "properties": {
    "name": "S. Sudan",
    "iso": "728",
    "iso3": "SDS",
    "continent": "Africa",
    "pop": 11062113,
    "z": 2.6
   },
   "geometry": {
    "type": "Point",
    "coordinates": [
     30.3902,
     7.2305
    ]
   }
  },
  {
   "type": "Feature",
   "properties": {
    "name": "Saint Helena",
    "iso": "654",
    "iso3": "SHN",
    "continent": "Seven seas (open ocean)",
    "pop": 4534,
    "z": 4.6
   },
   "geometry": {
    "type": "Point",
    "coordinates": [
     -5.7126,
     -15.9505
    ]
   }
  },
  {
   "type": "Feature",
   "properties": {
    "name": "Saint Lucia",
    "iso": "662",
    "iso3": "LCA",
    "continent": "North America",
    "pop": 182790,
    "z": 4.6
   },
   "geometry": {
    "type": "Point",
    "coordinates": [
     -60.9801,
     13.8924
    ]
   }
  },
  {
   "type": "Feature",
   "properties": {
    "name": "Samoa",
    "iso": "882",
    "iso3": "WSM",
    "continent": "Oceania",
    "pop": 197097,
    "z": 2.6
   },
   "geometry": {
    "type": "Point",
    "coordinates": [
     -172.4382,
     -13.6391
    ]
   }
  },
  {
   "type": "Feature",
   "properties": {
    "name": "San Marino",
    "iso": "674",
    "iso3": "SMR",
    "continent": "Europe",
    "pop": 33860,
    "z": 4.6
   },
   "geometry": {
    "type": "Point",
    "coordinates": [
     12.4412,
     43.9339
    ]
   }
  },
  {
   "type": "Feature",
   "properties": {
    "name": "São Tomé and Principe",
    "iso": "678",
    "iso3": "STP",
    "continent": "Africa",
    "pop": 215056,
    "z": 4.6
   },
   "geometry": {
    "type": "Point",
    "coordinates": [
     7.021,
     0.9709
    ]
   }
  },
  {
   "type": "Feature",
   "properties": {
    "name": "Saudi Arabia",
    "iso": "682",
    "iso3": "SAU",
    "continent": "Asia",
    "pop": 34268528,
    "z": 1.4
   },
   "geometry": {
    "type": "Point",
    "coordinates": [
     44.6996,
     23.8069
    ]
   }
  },
  {
   "type": "Feature",
   "properties": {
    "name": "Senegal",
    "iso": "686",
    "iso3": "SEN",
    "continent": "Africa",
    "pop": 16296364,
    "z": 2.3
   },
   "geometry": {
    "type": "Point",
    "coordinates": [
     -14.7786,
     15.1381
    ]
   }
  },
  {
   "type": "Feature",
   "properties": {
    "name": "Serbia",
    "iso": "688",
    "iso3": "SRB",
    "continent": "Europe",
    "pop": 6944975,
    "z": 3.6
   },
   "geometry": {
    "type": "Point",
    "coordinates": [
     20.788,
     44.1899
    ]
   }
  },
  {
   "type": "Feature",
   "properties": {
    "name": "Seychelles",
    "iso": "690",
    "iso3": "SYC",
    "continent": "Seven seas (open ocean)",
    "pop": 97625,
    "z": 4.6
   },
   "geometry": {
    "type": "Point",
    "coordinates": [
     55.4802,
     -4.6767
    ]
   }
  },
  {
   "type": "Feature",
   "properties": {
    "name": "Sierra Leone",
    "iso": "694",
    "iso3": "SLE",
    "continent": "Africa",
    "pop": 7813215,
    "z": 3.6
   },
   "geometry": {
    "type": "Point",
    "coordinates": [
     -11.7637,
     8.6174
    ]
   }
  },
  {
   "type": "Feature",
   "properties": {
    "name": "Singapore",
    "iso": "702",
    "iso3": "SGP",
    "continent": "Asia",
    "pop": 5703569,
    "z": 3.6
   },
   "geometry": {
    "type": "Point",
    "coordinates": [
     103.8169,
     1.3666
    ]
   }
  },
  {
   "type": "Feature",
   "properties": {
    "name": "Sint Maarten",
    "iso": "534",
    "iso3": "SXM",
    "continent": "North America",
    "pop": 40733,
    "z": 4.6
   },
   "geometry": {
    "type": "Point",
    "coordinates": [
     -63.0701,
     18.0409
    ]
   }
  },
  {
   "type": "Feature",
   "properties": {
    "name": "Slovakia",
    "iso": "703",
    "iso3": "SVK",
    "continent": "Europe",
    "pop": 5454073,
    "z": 3.6
   },
   "geometry": {
    "type": "Point",
    "coordinates": [
     19.0499,
     48.734
    ]
   }
  },
  {
   "type": "Feature",
   "properties": {
    "name": "Slovenia",
    "iso": "705",
    "iso3": "SVN",
    "continent": "Europe",
    "pop": 2087946,
    "z": 4.6
   },
   "geometry": {
    "type": "Point",
    "coordinates": [
     14.9153,
     46.0608
    ]
   }
  },
  {
   "type": "Feature",
   "properties": {
    "name": "Solomon Is.",
    "iso": "090",
    "iso3": "SLB",
    "continent": "Oceania",
    "pop": 669823,
    "z": 2.6
   },
   "geometry": {
    "type": "Point",
    "coordinates": [
     159.1705,
     -8.0295
    ]
   }
  },
  {
   "type": "Feature",
   "properties": {
    "name": "Somalia",
    "iso": "706",
    "iso3": "SOM",
    "continent": "Africa",
    "pop": 10192317.3,
    "z": 3.6
   },
   "geometry": {
    "type": "Point",
    "coordinates": [
     45.1924,
     3.5689
    ]
   }
  },
  {
   "type": "Feature",
   "properties": {
    "name": "South Africa",
    "iso": "710",
    "iso3": "ZAF",
    "continent": "Africa",
    "pop": 58558270,
    "z": 1.4
   },
   "geometry": {
    "type": "Point",
    "coordinates": [
     23.6657,
     -29.7088
    ]
   }
  },
  {
   "type": "Feature",
   "properties": {
    "name": "South Korea",
    "iso": "410",
    "iso3": "KOR",
    "continent": "Asia",
    "pop": 51709098,
    "z": 2.1
   },
   "geometry": {
    "type": "Point",
    "coordinates": [
     128.1295,
     36.3849
    ]
   }
  },
  {
   "type": "Feature",
   "properties": {
    "name": "Spain",
    "iso": "724",
    "iso3": "ESP",
    "continent": "Europe",
    "pop": 47076781,
    "z": 1.6
   },
   "geometry": {
    "type": "Point",
    "coordinates": [
     -3.4647,
     40.091
    ]
   }
  },
  {
   "type": "Feature",
   "properties": {
    "name": "Sri Lanka",
    "iso": "144",
    "iso3": "LKA",
    "continent": "Asia",
    "pop": 21803000,
    "z": 2.6
   },
   "geometry": {
    "type": "Point",
    "coordinates": [
     80.7048,
     7.5811
    ]
   }
  },
  {
   "type": "Feature",
   "properties": {
    "name": "St-Barthélemy",
    "iso": "652",
    "iso3": "BLM",
    "continent": "North America",
    "pop": 9961,
    "z": 5.3
   },
   "geometry": {
    "type": "Point",
    "coordinates": [
     -62.8332,
     17.902
    ]
   }
  },
  {
   "type": "Feature",
   "properties": {
    "name": "St-Martin",
    "iso": "663",
    "iso3": "MAF",
    "continent": "North America",
    "pop": 38002,
    "z": 4.6
   },
   "geometry": {
    "type": "Point",
    "coordinates": [
     -63.0494,
     18.0813
    ]
   }
  },
  {
   "type": "Feature",
   "properties": {
    "name": "St. Kitts and Nevis",
    "iso": "659",
    "iso3": "KNA",
    "continent": "North America",
    "pop": 52834,
    "z": 4.6
   },
   "geometry": {
    "type": "Point",
    "coordinates": [
     -62.758,
     17.3366
    ]
   }
  },
  {
   "type": "Feature",
   "properties": {
    "name": "St. Pierre and Miquelon",
    "iso": "666",
    "iso3": "SPM",
    "continent": "North America",
    "pop": 5997,
    "z": 4.6
   },
   "geometry": {
    "type": "Point",
    "coordinates": [
     -56.3324,
     47.0403
    ]
   }
  },
  {
   "type": "Feature",
   "properties": {
    "name": "St. Vin. and Gren.",
    "iso": "670",
    "iso3": "VCT",
    "continent": "North America",
    "pop": 110589,
    "z": 4.6
   },
   "geometry": {
    "type": "Point",
    "coordinates": [
     -61.3359,
     13.0879
    ]
   }
  },
  {
   "type": "Feature",
   "properties": {
    "name": "Sudan",
    "iso": "729",
    "iso3": "SDN",
    "continent": "Africa",
    "pop": 42813238,
    "z": 2.1
   },
   "geometry": {
    "type": "Point",
    "coordinates": [
     29.2607,
     16.3307
    ]
   }
  },
  {
   "type": "Feature",
   "properties": {
    "name": "Suriname",
    "iso": "740",
    "iso3": "SUR",
    "continent": "South America",
    "pop": 581363,
    "z": 3.6
   },
   "geometry": {
    "type": "Point",
    "coordinates": [
     -55.9109,
     4.144
    ]
   }
  },
  {
   "type": "Feature",
   "properties": {
    "name": "Sweden",
    "iso": "752",
    "iso3": "SWE",
    "continent": "Europe",
    "pop": 10285453,
    "z": 1.6
   },
   "geometry": {
    "type": "Point",
    "coordinates": [
     19.0171,
     65.8592
    ]
   }
  },
  {
   "type": "Feature",
   "properties": {
    "name": "Switzerland",
    "iso": "756",
    "iso3": "CHE",
    "continent": "Europe",
    "pop": 8574832,
    "z": 3.6
   },
   "geometry": {
    "type": "Point",
    "coordinates": [
     7.464,
     46.7191
    ]
   }
  },
  {
   "type": "Feature",
   "properties": {
    "name": "Syria",
    "iso": "760",
    "iso3": "SYR",
    "continent": "Asia",
    "pop": 17070135,
    "z": 2.6
   },
   "geometry": {
    "type": "Point",
    "coordinates": [
     38.2778,
     35.0066
    ]
   }
  },
  {
   "type": "Feature",
   "properties": {
    "name": "Taiwan",
    "iso": "158",
    "iso3": "TWN",
    "continent": "Asia",
    "pop": 23568378,
    "z": 4.1
   },
   "geometry": {
    "type": "Point",
    "coordinates": [
     120.8682,
     23.6524
    ]
   }
  },
  {
   "type": "Feature",
   "properties": {
    "name": "Tajikistan",
    "iso": "762",
    "iso3": "TJK",
    "continent": "Asia",
    "pop": 9321018,
    "z": 3.6
   },
   "geometry": {
    "type": "Point",
    "coordinates": [
     72.5873,
     38.1998
    ]
   }
  },
  {
   "type": "Feature",
   "properties": {
    "name": "Tanzania",
    "iso": "834",
    "iso3": "TZA",
    "continent": "Africa",
    "pop": 58005463,
    "z": 2.6
   },
   "geometry": {
    "type": "Point",
    "coordinates": [
     34.9592,
     -6.0519
    ]
   }
  },
  {
   "type": "Feature",
   "properties": {
    "name": "Thailand",
    "iso": "764",
    "iso3": "THA",
    "continent": "Asia",
    "pop": 69625582,
    "z": 2.3
   },
   "geometry": {
    "type": "Point",
    "coordinates": [
     101.0732,
     15.4597
    ]
   }
  },
  {
   "type": "Feature",
   "properties": {
    "name": "Timor-Leste",
    "iso": "626",
    "iso3": "TLS",
    "continent": "Asia",
    "pop": 1293119,
    "z": 3.6
   },
   "geometry": {
    "type": "Point",
    "coordinates": [
     125.8547,
     -8.8037
    ]
   }
  },
  {
   "type": "Feature",
   "properties": {
    "name": "Togo",
    "iso": "768",
    "iso3": "TGO",
    "continent": "Africa",
    "pop": 8082366,
    "z": 4.6
   },
   "geometry": {
    "type": "Point",
    "coordinates": [
     1.0581,
     8.8072
    ]
   }
  },
  {
   "type": "Feature",
   "properties": {
    "name": "Tonga",
    "iso": "776",
    "iso3": "TON",
    "continent": "Oceania",
    "pop": 104494,
    "z": 3.6
   },
   "geometry": {
    "type": "Point",
    "coordinates": [
     -175.163,
     -21.21
    ]
   }
  },
  {
   "type": "Feature",
   "properties": {
    "name": "Trinidad and Tobago",
    "iso": "780",
    "iso3": "TTO",
    "continent": "North America",
    "pop": 1394973,
    "z": 4.1
   },
   "geometry": {
    "type": "Point",
    "coordinates": [
     -60.9184,
     10.9989
    ]
   }
  },
  {
   "type": "Feature",
   "properties": {
    "name": "Tunisia",
    "iso": "788",
    "iso3": "TUN",
    "continent": "Africa",
    "pop": 11694719,
    "z": 2.6
   },
   "geometry": {
    "type": "Point",
    "coordinates": [
     9.0079,
     33.6873
    ]
   }
  },
  {
   "type": "Feature",
   "properties": {
    "name": "Turkey",
    "iso": "792",
    "iso3": "TUR",
    "continent": "Asia",
    "pop": 83429615,
    "z": 1.6
   },
   "geometry": {
    "type": "Point",
    "coordinates": [
     34.5083,
     39.3454
    ]
   }
  },
  {
   "type": "Feature",
   "properties": {
    "name": "Turkmenistan",
    "iso": "795",
    "iso3": "TKM",
    "continent": "Asia",
    "pop": 5942089,
    "z": 2.6
   },
   "geometry": {
    "type": "Point",
    "coordinates": [
     58.6766,
     39.8552
    ]
   }
  },
  {
   "type": "Feature",
   "properties": {
    "name": "Turks and Caicos Is.",
    "iso": "796",
    "iso3": "TCA",
    "continent": "North America",
    "pop": 38191,
    "z": 4.6
   },
   "geometry": {
    "type": "Point",
    "coordinates": [
     -71.7527,
     21.8166
    ]
   }
  },
  {
   "type": "Feature",
   "properties": {
    "name": "U.S. Virgin Is.",
    "iso": "850",
    "iso3": "VIR",
    "continent": "North America",
    "pop": 106631,
    "z": 4.6
   },
   "geometry": {
    "type": "Point",
    "coordinates": [
     -64.7792,
     17.7467
    ]
   }
  },
  {
   "type": "Feature",
   "properties": {
    "name": "Uganda",
    "iso": "800",
    "iso3": "UGA",
    "continent": "Africa",
    "pop": 44269594,
    "z": 2.6
   },
   "geometry": {
    "type": "Point",
    "coordinates": [
     32.9486,
     1.9726
    ]
   }
  },
  {
   "type": "Feature",
   "properties": {
    "name": "Ukraine",
    "iso": "804",
    "iso3": "UKR",
    "continent": "Europe",
    "pop": 44385155,
    "z": 2.3
   },
   "geometry": {
    "type": "Point",
    "coordinates": [
     32.1409,
     49.7247
    ]
   }
  },
  {
   "type": "Feature",
   "properties": {
    "name": "United Arab Emirates",
    "iso": "784",
    "iso3": "ARE",
    "continent": "Asia",
    "pop": 9770529,
    "z": 3.6
   },
   "geometry": {
    "type": "Point",
    "coordinates": [
     54.5473,
     23.4663
    ]
   }
  },
  {
   "type": "Feature",
   "properties": {
    "name": "United Kingdom",
    "iso": "826",
    "iso3": "GBR",
    "continent": "Europe",
    "pop": 66834405,
    "z": 1.4
   },
   "geometry": {
    "type": "Point",
    "coordinates": [
     -2.1163,
     54.4027
    ]
   }
  },
  {
   "type": "Feature",
   "properties": {
    "name": "United States of America",
    "iso": "840",
    "iso3": "USA",
    "continent": "North America",
    "pop": 328239523,
    "z": 1.4
   },
   "geometry": {
    "type": "Point",
    "coordinates": [
     -97.4826,
     39.5385
    ]
   }
  },
  {
   "type": "Feature",
   "properties": {
    "name": "Uruguay",
    "iso": "858",
    "iso3": "URY",
    "continent": "South America",
    "pop": 3461734,
    "z": 2.6
   },
   "geometry": {
    "type": "Point",
    "coordinates": [
     -55.9669,
     -32.9611
    ]
   }
  },
  {
   "type": "Feature",
   "properties": {
    "name": "Uzbekistan",
    "iso": "860",
    "iso3": "UZB",
    "continent": "Asia",
    "pop": 33580650,
    "z": 2.6
   },
   "geometry": {
    "type": "Point",
    "coordinates": [
     64.0054,
     41.6936
    ]
   }
  },
  {
   "type": "Feature",
   "properties": {
    "name": "Vanuatu",
    "iso": "548",
    "iso3": "VUT",
    "continent": "Oceania",
    "pop": 299882,
    "z": 3.6
   },
   "geometry": {
    "type": "Point",
    "coordinates": [
     166.9088,
     -15.3715
    ]
   }
  },
  {
   "type": "Feature",
   "properties": {
    "name": "Vatican",
    "iso": "336",
    "iso3": "VAT",
    "continent": "Europe",
    "pop": 825,
    "z": 4.6
   },
   "geometry": {
    "type": "Point",
    "coordinates": [
     12.4534,
     41.9033
    ]
   }
  },
  {
   "type": "Feature",
   "properties": {
    "name": "Venezuela",
    "iso": "862",
    "iso3": "VEN",
    "continent": "South America",
    "pop": 28515829,
    "z": 2.1
   },
   "geometry": {
    "type": "Point",
    "coordinates": [
     -64.5994,
     7.1825
    ]
   }
  },
  {
   "type": "Feature",
   "properties": {
    "name": "Vietnam",
    "iso": "704",
    "iso3": "VNM",
    "continent": "Asia",
    "pop": 96462106,
    "z": 1.6
   },
   "geometry": {
    "type": "Point",
    "coordinates": [
     105.3873,
     21.7154
    ]
   }
  },
  {
   "type": "Feature",
   "properties": {
    "name": "W. Sahara",
    "iso": "732",
    "iso3": "SAH",
    "continent": "Africa",
    "pop": 603253,
    "z": 5.6
   },
   "geometry": {
    "type": "Point",
    "coordinates": [
     -12.6303,
     23.9676
    ]
   }
  },
  {
   "type": "Feature",
   "properties": {
    "name": "Wallis and Futuna Is.",
    "iso": "876",
    "iso3": "WLF",
    "continent": "Oceania",
    "pop": 11558,
    "z": 4.3
   },
   "geometry": {
    "type": "Point",
    "coordinates": [
     -178.1374,
     -14.2864
    ]
   }
  },
  {
   "type": "Feature",
   "properties": {
    "name": "Yemen",
    "iso": "887",
    "iso3": "YEM",
    "continent": "Asia",
    "pop": 29161922,
    "z": 2.6
   },
   "geometry": {
    "type": "Point",
    "coordinates": [
     45.8744,
     15.3282
    ]
   }
  },
  {
   "type": "Feature",
   "properties": {
    "name": "Zambia",
    "iso": "894",
    "iso3": "ZMB",
    "continent": "Africa",
    "pop": 17861030,
    "z": 2.6
   },
   "geometry": {
    "type": "Point",
    "coordinates": [
     26.3953,
     -14.6608
    ]
   }
  },
  {
   "type": "Feature",
   "properties": {
    "name": "Zimbabwe",
    "iso": "716",
    "iso3": "ZWE",
    "continent": "Africa",
    "pop": 14645468,
    "z": 2.1
   },
   "geometry": {
    "type": "Point",
    "coordinates": [
     29.9254,
     -18.9116
    ]
   }
  }
 ]
}
